ONEWEB-0521             
1 54139U 22138AC  26156.48722198 -.00000036  00000+0 -12262-3 0  9995
2 54139  87.9170 307.2853 0002035  94.0796 266.0570 13.19726757175220
ONEWEB-0522             
1 54140U 22138AD  26156.69413941 -.00000162  00000+0 -43622-3 0  9997
2 54140  87.9173 307.2466 0001680  92.9991 267.1334 13.19725611175299
ONEWEB-0523             
1 54141U 22138AE  26156.59003984  .00000122  00000+0  26689-3 0  9997
2 54141  87.9190 276.7514 0002733 106.8373 253.3061 13.20770552177777
ONEWEB-0524             
1 54142U 22138AF  26156.80721319  .00000072  00000+0  14581-3 0  9993
2 54142  87.9189 276.7054 0002208 123.8228 236.3116 13.20770766177803
ONEWEB-0525             
1 54143U 22138AG  26156.71308950 -.00000007  00000+0 -49591-4 0  9996
2 54143  87.9168 307.2509 0001408  96.8717 263.2576 13.19724719175317
ONEWEB-0526             
1 54144U 22138AH  26156.67045294  .00000105  00000+0  22915-3 0  9998
2 54144  87.9167 307.2594 0001729  98.7793 261.3535 13.19730596175282
ONEWEB-0529             
1 54145U 22138AJ  26156.44614801 -.00000063  00000+0 -18918-3 0  9993
2 54145  87.9167 307.3157 0001585  96.8017 263.3297 13.19726576175276
ONEWEB-0531             
1 54146U 22138AK  26156.56648884 -.00000031  00000+0 -10856-3 0  9993
2 54146  87.9192 276.7514 0002684 113.4991 246.6424 13.20772378177775
ONEWEB-0535             
1 54147U 22138AL  26156.70676913  .00000070  00000+0  14238-3 0  9993
2 54147  87.9166 307.2458 0002154  97.8450 262.2927 13.19724809175326
ONEWEB-0536             
1 54148U 22138AM  26156.62876567  .00002406  00000+0  58847-2 0  9990
2 54148  87.9189 276.7627 0002780 117.3301 242.8115 13.20758411177770
ONEWEB-0527             
1 54642U 22166A   26156.83337963 -.00039876  00000+0 -99298-1 0  9992
2 54642  87.9255 246.2458 0002093  99.0238 335.5777 13.20251011  5148
ONEWEB-0528             
1 54643U 22166B   26155.68682016 -.00008935  00000+0 -21712-1 0  9995
2 54643  87.9252 246.4871 0001240  66.4305 293.6959 13.21750757169894
ONEWEB-0539             
1 54644U 22166C   26156.48239345 -.00000036  00000+0 -11941-3 0  9997
2 54644  87.9263 246.2992 0002051  94.2257 265.9111 13.21825992169992
ONEWEB-0540             
1 54645U 22166D   26156.48925588  .00000089  00000+0  18420-3 0  9994
2 54645  87.9257 246.3286 0002038  97.2780 262.8586 13.21826450169983
ONEWEB-0542             
1 54646U 22166E   26156.49248241  .00000075  00000+0  14889-3 0  9990
2 54646  87.9266 246.2955 0002111  91.7753 268.3622 13.21827375169997
ONEWEB-0545             
1 54647U 22166F   26155.24601416  .00000020  00000+0  16372-4 0  9990
2 54647  87.9255 246.5563 0002353  90.7220 269.4184 13.21828055169799
